[ {"CCSDS_OMM_VERS": "3.0", "COMMENT": "GENERATED VIA SPACE-TRACK.ORG API", "CREATION_DATE": "2020-01-06T04:27:36", "ORIGINATOR": "18 SPCS", "OBJECT_NAME": "OBJECT F", "OBJECT_ID": "2019-092F", "CENTER_NAME": "EARTH", "REF_FRAME": "TEME", "TIME_SYSTEM": "UTC", "MEAN_ELEMENT_THEORY": "SGP4", "EPOCH": "2020-01-05T12:56:25.441440", "MEAN_MOTION": "15.15182976", "ECCENTRICITY": "0.00138130", "INCLINATION": "97.4607", "RA_OF_ASC_NODE": "191.6566", "ARG_OF_PERICENTER": "198.7319", "MEAN_ANOMALY": "161.3470", "EPHEMERIS_TYPE": "0", "CLASSIFICATION_TYPE": "U", "NORAD_CAT_ID": "44878", "ELEMENT_SET_NO": "999", "REV_AT_EPOCH": "271", "BSTAR": "0.00000000000000", "MEAN_MOTION_DOT": "-0.00000066", "MEAN_MOTION_DDOT": "0.0000000000000", "SEMIMAJOR_AXIS": "6898.560", "PERIOD": "95.038", "APOAPSIS": "529.954", "PERIAPSIS": "510.896", "OBJECT_TYPE": "TBA", "RCS_SIZE": "SMALL", "COUNTRY_CODE": "TBD", "LAUNCH_DATE": "2019-12-18", "SITE": "FRGUI", "DECAY_DATE": null, "FILE": "2679057", "GP_ID": "146210214", "TLE_LINE0": "0 OBJECT F", "TLE_LINE1": "1 44878U 19092F   20005.53918335 -.00000066 +00000-0 +00000-0 0  9999", "TLE_LINE2": "2 44878 097.4607 191.6566 0013813 198.7319 161.3470 15.15182976002711"}, {"CCSDS_OMM_VERS": "3.0", "COMMENT": "GENERATED VIA SPACE-TRACK.ORG API", "CREATION_DATE": "2020-01-06T14:20:16", "ORIGINATOR": "18 SPCS", "OBJECT_NAME": "OBJECT F", "OBJECT_ID": "2019-092F", "CENTER_NAME": "EARTH", "REF_FRAME": "TEME", "TIME_SYSTEM": "UTC", "MEAN_ELEMENT_THEORY": "SGP4", "EPOCH": "2020-01-06T09:32:42.266688", "MEAN_MOTION": "15.15183375", "ECCENTRICITY": "0.00138460", "INCLINATION": "97.4606", "RA_OF_ASC_NODE": "192.4991", "ARG_OF_PERICENTER": "195.6737", "MEAN_ANOMALY": "164.4115", "EPHEMERIS_TYPE": "0", "CLASSIFICATION_TYPE": "U", "NORAD_CAT_ID": "44878", "ELEMENT_SET_NO": "999", "REV_AT_EPOCH": "284", "BSTAR": "0.00000000000000", "MEAN_MOTION_DOT": "-0.00000066", "MEAN_MOTION_DDOT": "0.0000000000000", "SEMIMAJOR_AXIS": "6898.558", "PERIOD": "95.038", "APOAPSIS": "529.975", "PERIAPSIS": "510.872", "OBJECT_TYPE": "TBA", "RCS_SIZE": "SMALL", "COUNTRY_CODE": "TBD", "LAUNCH_DATE": "2019-12-18", "SITE": "FRGUI", "DECAY_DATE": null, "FILE": "2679246", "GP_ID": "146214320", "TLE_LINE0": "0 OBJECT F", "TLE_LINE1": "1 44878U 19092F   20006.39771142 -.00000066  00000-0  00000+0 0  9996", "TLE_LINE2": "2 44878  97.4606 192.4991 0013846 195.6737 164.4115 15.15183375  2845"}, {"CCSDS_OMM_VERS": "3.0", "COMMENT": "GENERATED VIA SPACE-TRACK.ORG API", "CREATION_DATE": "2020-01-07T04:33:27", "ORIGINATOR": "18 SPCS", "OBJECT_NAME": "OBJECT F", "OBJECT_ID": "2019-092F", "CENTER_NAME": "EARTH", "REF_FRAME": "TEME", "TIME_SYSTEM": "UTC", "MEAN_ELEMENT_THEORY": "SGP4", "EPOCH": "2020-01-06T12:42:54.022752", "MEAN_MOTION": "15.15184049", "ECCENTRICITY": "0.00141360", "INCLINATION": "97.4608", "RA_OF_ASC_NODE": "192.6297", "ARG_OF_PERICENTER": "195.4542", "MEAN_ANOMALY": "164.6373", "EPHEMERIS_TYPE": "0", "CLASSIFICATION_TYPE": "U", "NORAD_CAT_ID": "44878", "ELEMENT_SET_NO": "999", "REV_AT_EPOCH": "286", "BSTAR": "0.00000000000000", "MEAN_MOTION_DOT": "-0.00000066", "MEAN_MOTION_DDOT": "0.0000000000000", "SEMIMAJOR_AXIS": "6898.556", "PERIOD": "95.037", "APOAPSIS": "530.173", "PERIAPSIS": "510.670", "OBJECT_TYPE": "TBA", "RCS_SIZE": "SMALL", "COUNTRY_CODE": "TBD", "LAUNCH_DATE": "2019-12-18", "SITE": "FRGUI", "DECAY_DATE": null, "FILE": "2679641", "GP_ID": "146276600", "TLE_LINE0": "0 OBJECT F", "TLE_LINE1": "1 44878U 19092F   20006.52979193 -.00000066 +00000-0 +00000-0 0  9998", "TLE_LINE2": "2 44878 097.4608 192.6297 0014136 195.4542 164.6373 15.15184049002862"}, {"CCSDS_OMM_VERS": "3.0", "COMMENT": "GENERATED VIA SPACE-TRACK.ORG API", "CREATION_DATE": "2020-01-07T22:20:14", "ORIGINATOR": "18 SPCS", "OBJECT_NAME": "OBJECT F", "OBJECT_ID": "2019-092F", "CENTER_NAME": "EARTH", "REF_FRAME": "TEME", "TIME_SYSTEM": "UTC", "MEAN_ELEMENT_THEORY": "SGP4", "EPOCH": "2020-01-07T14:04:28.237152", "MEAN_MOTION": "15.15185664", "ECCENTRICITY": "0.00143600", "INCLINATION": "97.4611", "RA_OF_ASC_NODE": "193.6689", "ARG_OF_PERICENTER": "191.1287", "MEAN_ANOMALY": "168.9681", "EPHEMERIS_TYPE": "0", "CLASSIFICATION_TYPE": "U", "NORAD_CAT_ID": "44878", "ELEMENT_SET_NO": "999", "REV_AT_EPOCH": "302", "BSTAR": "0.00000000000000", "MEAN_MOTION_DOT": "-0.00000066", "MEAN_MOTION_DDOT": "0.0000000000000", "SEMIMAJOR_AXIS": "6898.551", "PERIOD": "95.037", "APOAPSIS": "530.323", "PERIAPSIS": "510.510", "OBJECT_TYPE": "TBA", "RCS_SIZE": "SMALL", "COUNTRY_CODE": "TBD", "LAUNCH_DATE": "2019-12-18", "SITE": "FRGUI", "DECAY_DATE": null, "FILE": "2680065", "GP_ID": "146305183", "TLE_LINE0": "0 OBJECT F", "TLE_LINE1": "1 44878U 19092F   20007.58643793 -.00000066  00000-0  00000+0 0  9998", "TLE_LINE2": "2 44878  97.4611 193.6689 0014360 191.1287 168.9681 15.15185664  3022"}, {"CCSDS_OMM_VERS": "3.0", "COMMENT": "GENERATED VIA SPACE-TRACK.ORG API", "CREATION_DATE": "2020-01-08T22:20:14", "ORIGINATOR": "18 SPCS", "OBJECT_NAME": "OBJECT F", "OBJECT_ID": "2019-092F", "CENTER_NAME": "EARTH", "REF_FRAME": "TEME", "TIME_SYSTEM": "UTC", "MEAN_ELEMENT_THEORY": "SGP4", "EPOCH": "2020-01-08T15:26:02.342688", "MEAN_MOTION": "15.15188257", "ECCENTRICITY": "0.00144380", "INCLINATION": "97.4618", "RA_OF_ASC_NODE": "194.7066", "ARG_OF_PERICENTER": "188.4176", "MEAN_ANOMALY": "171.6936", "EPHEMERIS_TYPE": "0", "CLASSIFICATION_TYPE": "U", "NORAD_CAT_ID": "44878", "ELEMENT_SET_NO": "999", "REV_AT_EPOCH": "318", "BSTAR": "0.00000000000000", "MEAN_MOTION_DOT": "-0.00000066", "MEAN_MOTION_DDOT": "0.0000000000000", "SEMIMAJOR_AXIS": "6898.544", "PERIOD": "95.037", "APOAPSIS": "530.369", "PERIAPSIS": "510.448", "OBJECT_TYPE": "TBA", "RCS_SIZE": "SMALL", "COUNTRY_CODE": "TBD", "LAUNCH_DATE": "2019-12-18", "SITE": "FRGUI", "DECAY_DATE": null, "FILE": "2680604", "GP_ID": "146375527", "TLE_LINE0": "0 OBJECT F", "TLE_LINE1": "1 44878U 19092F   20008.64308267 -.00000066  00000-0  00000+0 0  9990", "TLE_LINE2": "2 44878  97.4618 194.7066 0014438 188.4176 171.6936 15.15188257  3184"}, {"CCSDS_OMM_VERS": "3.0", "COMMENT": "GENERATED VIA SPACE-TRACK.ORG API", "CREATION_DATE": "2020-01-10T04:00:00", "ORIGINATOR": "18 SPCS", "OBJECT_NAME": "OBJECT F", "OBJECT_ID": "2019-092F", "CENTER_NAME": "EARTH", "REF_FRAME": "TEME", "TIME_SYSTEM": "UTC", "MEAN_ELEMENT_THEORY": "SGP4", "EPOCH": "2020-01-09T13:37:24.480480", "MEAN_MOTION": "15.15190780", "ECCENTRICITY": "0.00140550", "INCLINATION": "97.4622", "RA_OF_ASC_NODE": "195.6136", "ARG_OF_PERICENTER": "185.7837", "MEAN_ANOMALY": "174.3323", "EPHEMERIS_TYPE": "0", "CLASSIFICATION_TYPE": "U", "NORAD_CAT_ID": "44878", "ELEMENT_SET_NO": "999", "REV_AT_EPOCH": "332", "BSTAR": "0.00000000000000", "MEAN_MOTION_DOT": "-0.00000066", "MEAN_MOTION_DDOT": "0.0000000000000", "SEMIMAJOR_AXIS": "6898.536", "PERIOD": "95.037", "APOAPSIS": "530.097", "PERIAPSIS": "510.705", "OBJECT_TYPE": "TBA", "RCS_SIZE": "SMALL", "COUNTRY_CODE": "TBD", "LAUNCH_DATE": "2019-12-18", "SITE": "FRGUI", "DECAY_DATE": null, "FILE": "2681237", "GP_ID": "146486045", "TLE_LINE0": "0 OBJECT F", "TLE_LINE1": "1 44878U 19092F   20009.56764445 -.00000066 +00000-0 +00000-0 0  9997", "TLE_LINE2": "2 44878 097.4622 195.6136 0014055 185.7837 174.3323 15.15190780003326"}, {"CCSDS_OMM_VERS": "3.0", "COMMENT": "GENERATED VIA SPACE-TRACK.ORG API", "CREATION_DATE": "2020-01-10T06:20:15", "ORIGINATOR": "18 SPCS", "OBJECT_NAME": "OBJECT F", "OBJECT_ID": "2019-092F", "CENTER_NAME": "EARTH", "REF_FRAME": "TEME", "TIME_SYSTEM": "UTC", "MEAN_ELEMENT_THEORY": "SGP4", "EPOCH": "2020-01-09T18:22:42.004416", "MEAN_MOTION": "15.15191698", "ECCENTRICITY": "0.00142200", "INCLINATION": "97.4623", "RA_OF_ASC_NODE": "195.8078", "ARG_OF_PERICENTER": "185.5641", "MEAN_ANOMALY": "174.5525", "EPHEMERIS_TYPE": "0", "CLASSIFICATION_TYPE": "U", "NORAD_CAT_ID": "44878", "ELEMENT_SET_NO": "999", "REV_AT_EPOCH": "335", "BSTAR": "0.00000000000000", "MEAN_MOTION_DOT": "-0.00000066", "MEAN_MOTION_DDOT": "0.0000000000000", "SEMIMAJOR_AXIS": "6898.533", "PERIOD": "95.037", "APOAPSIS": "530.208", "PERIAPSIS": "510.588", "OBJECT_TYPE": "TBA", "RCS_SIZE": "SMALL", "COUNTRY_CODE": "TBD", "LAUNCH_DATE": "2019-12-18", "SITE": "FRGUI", "DECAY_DATE": null, "FILE": "2681259", "GP_ID": "146505864", "TLE_LINE0": "0 OBJECT F", "TLE_LINE1": "1 44878U 19092F   20009.76576394 -.00000066  00000-0  00000+0 0  9992", "TLE_LINE2": "2 44878  97.4623 195.8078 0014220 185.5641 174.5525 15.15191698  3357"}, {"CCSDS_OMM_VERS": "3.0", "COMMENT": "GENERATED VIA SPACE-TRACK.ORG API", "CREATION_DATE": "2020-01-11T04:11:21", "ORIGINATOR": "18 SPCS", "OBJECT_NAME": "OBJECT F", "OBJECT_ID": "2019-092F", "CENTER_NAME": "EARTH", "REF_FRAME": "TEME", "TIME_SYSTEM": "UTC", "MEAN_ELEMENT_THEORY": "SGP4", "EPOCH": "2020-01-10T18:09:09.912672", "MEAN_MOTION": "15.15193929", "ECCENTRICITY": "0.00143680", "INCLINATION": "97.4625", "RA_OF_ASC_NODE": "196.7807", "ARG_OF_PERICENTER": "182.4248", "MEAN_ANOMALY": "177.7002", "EPHEMERIS_TYPE": "0", "CLASSIFICATION_TYPE": "U", "NORAD_CAT_ID": "44878", "ELEMENT_SET_NO": "999", "REV_AT_EPOCH": "350", "BSTAR": "0.00000000000000", "MEAN_MOTION_DOT": "-0.00000066", "MEAN_MOTION_DDOT": "0.0000000000000", "SEMIMAJOR_AXIS": "6898.526", "PERIOD": "95.037", "APOAPSIS": "530.303", "PERIAPSIS": "510.480", "OBJECT_TYPE": "TBA", "RCS_SIZE": "SMALL", "COUNTRY_CODE": "TBD", "LAUNCH_DATE": "2019-12-18", "SITE": "FRGUI", "DECAY_DATE": null, "FILE": "2681885", "GP_ID": "146578300", "TLE_LINE0": "0 OBJECT F", "TLE_LINE1": "1 44878U 19092F   20010.75636473 -.00000066 +00000-0 +00000-0 0  9999", "TLE_LINE2": "2 44878 097.4625 196.7807 0014368 182.4248 177.7002 15.15193929003502"}]